PLEIADES 1A             
1 38012U 11076F   26194.87903226  .00000110  00000+0  33490-4 0  9992
2 38012  98.1975 269.6220 0001701  79.3450 334.7352 14.58546266775888
PLEIADES 1B             
1 39019U 12068A   26194.83410682  .00000040  00000+0  18466-4 0  9995
2 39019  98.1947 269.5176 0001606  78.9653 281.1727 14.58533503724737
