{"fetched_at":"2026-07-14T06:34:59.135Z","source":"https://celestrak.org/NORAD/elements/gp.php?NAME=PLEIADES&FORMAT=JSON","constellation":"pleiades","records":[{"OBJECT_NAME":"PLEIADES 1A","OBJECT_ID":"2011-076F","EPOCH":"2026-07-13T21:05:48.387264","CLASSIFICATION_TYPE":"U","MEAN_MOTION":14.58546266,"ECCENTRICITY":0.0001701,"INCLINATION":98.1975,"RA_OF_ASC_NODE":269.622,"ARG_OF_PERICENTER":79.345,"MEAN_ANOMALY":334.7352,"EPHEMERIS_TYPE":0,"NORAD_CAT_ID":38012,"ELEMENT_SET_NO":999,"REV_AT_EPOCH":77588,"BSTAR":0.00003349,"MEAN_MOTION_DOT":0.0000011,"MEAN_MOTION_DDOT":0},{"OBJECT_NAME":"PLEIADES 1B","OBJECT_ID":"2012-068A","EPOCH":"2026-07-13T20:01:06.829248","CLASSIFICATION_TYPE":"U","MEAN_MOTION":14.58533503,"ECCENTRICITY":0.0001606,"INCLINATION":98.1947,"RA_OF_ASC_NODE":269.5176,"ARG_OF_PERICENTER":78.9653,"MEAN_ANOMALY":281.1727,"EPHEMERIS_TYPE":0,"NORAD_CAT_ID":39019,"ELEMENT_SET_NO":999,"REV_AT_EPOCH":72473,"BSTAR":0.000018466,"MEAN_MOTION_DOT":4e-7,"MEAN_MOTION_DDOT":0}]}
